OBJECT_NAME,OBJECT_ID,EPOCH,MEAN_MOTION,ECCENTRICITY,INCLINATION,RA_OF_ASC_NODE,ARG_OF_PERICENTER,MEAN_ANOMALY,EPHEMERIS_TYPE,CLASSIFICATION_TYPE,NORAD_CAT_ID,ELEMENT_SET_NO,REV_AT_EPOCH,BSTAR,MEAN_MOTION_DOT,MEAN_MOTION_DDOT
DUCHIFAT-1,2014-033M,2026-07-01T14:10:00.261984,15.67738126,.00000971,98.0446,243.8075,87.5908,272.5362,0,U,40021,999,65800,.12770693E-2,.141762E-2,0
NANOSATC-BR1,2014-033Q,2026-07-01T01:19:43.366656,15.31903939,.00052066,98.0713,215.6747,130.4085,229.7610,0,U,40024,999,65610,.73725935E-3,.22675E-3,0
QB50P1,2014-033R,2026-06-30T23:44:53.517984,15.18468022,.00092669,98.0957,194.1047,167.8824,192.2633,0,U,40025,999,65512,.48958673E-3,.10029E-3,0
DTUSAT-2,2014-033W,2026-07-01T12:04:46.051392,15.15197162,.00081511,98.0861,181.1409,173.5109,186.6228,0,U,40030,999,65485,.40080329E-3,.7459E-4,0
QB50P2,2014-033Y,2026-06-29T23:27:33.028704,15.15322126,.00090963,98.0748,178.6550,125.6149,234.5930,0,U,40032,999,65460,.3830701E-3,.7152E-4,0
PERSEUS-M1,2014-033AF,2026-06-30T19:37:46.763040,14.95677159,.00099965,97.9649,126.1740,250.1954,109.8189,0,U,40039,999,65267,.12171915E-3,.1294E-4,0
POLYITAN-1,2014-033AJ,2026-07-01T08:13:14.466720,15.33763480,.00087616,98.0933,209.9470,102.5893,257.6328,0,U,40042,999,65576,.80280186E-3,.26215E-3,0
TIGRISAT,2014-033AK,2026-07-01T01:29:18.709440,14.85211339,.00498175,97.7848,331.7571,30.6226,329.7881,0,U,40043,999,64768,.22091814E-3,.1881E-4,0
CANX-4,2014-034C,2026-07-01T11:20:23.155872,14.81290157,.00120902,98.3102,58.3088,330.9197,29.1340,0,U,40055,999,64664,.1293694E-3,.953E-5,0
CANX-5,2014-034D,2026-07-01T09:40:37.161696,14.81307917,.00120996,98.3105,58.2814,331.3634,28.6911,0,U,40056,999,63744,.14055209E-3,.104E-4,0
GONETS-M 10,2014-036C,2026-07-01T13:25:19.904160,12.42945383,.00229882,82.5128,298.7471,110.6441,249.7107,0,U,40063,999,54403,-.79734783E-3,-.1E-5,0
METEOR-M 2,2014-037A,2026-07-01T13:48:46.642176,14.21464495,.00060434,98.5117,157.8047,7.5055,352.6213,0,U,40069,999,62136,-.32156806E-4,-.112E-5,0
DX1,2014-037C,2026-07-01T14:21:25.333632,14.90029790,.00059089,98.3876,145.1755,216.8779,143.2031,0,U,40071,999,64825,.19740244E-3,.1843E-4,0
UKUBE-1,2014-037F,2026-07-01T05:58:22.780992,15.13766738,.0003192,98.4232,187.0001,110.4842,249.6729,0,U,40074,999,65068,.56113E-3,.10051E-3,0
GAOFEN-2,2014-049A,2026-07-01T15:15:29.957760,14.80914253,.00071216,98.0108,246.8290,175.4231,184.7048,0,U,40118,999,64137,.74389574E-4,.522E-5,0
BRITE-PL2 (HEWELIUSZ),2014-049B,2026-07-01T07:09:40.121856,14.94645278,.00151408,97.9112,294.4083,65.3963,294.8832,0,U,40119,999,64355,.16731449E-3,.1757E-4,0
CBERS 4,2014-079A,2026-07-01T14:31:03.313344,14.35514040,.00013946,98.3527,238.9839,50.8676,309.2634,0,U,40336,999,60602,.15543499E-3,.405E-5,0
SMAP,2015-003A,2026-07-01T13:48:53.668224,14.63379250,.00014647,98.1277,189.4663,97.7075,262.4294,0,U,40376,999,60972,.98268204E-4,.461E-5,0
GONETS-M 11,2015-020A,2026-07-01T13:52:55.549344,12.42878408,.00159004,82.4857,22.0227,334.4454,25.5838,0,U,40552,999,51052,.97520366E-3,.145E-5,0
GONETS-M 12,2015-020B,2026-07-01T15:10:26.563296,12.42891957,.00146457,82.4890,23.1170,318.8247,41.1727,0,U,40553,999,51052,.60649633E-3,.94E-6,0
GONETS-M 13,2015-020C,2026-07-01T14:32:36.220992,12.42871982,.00130383,82.4852,21.7441,303.4037,56.5794,0,U,40554,999,51049,.11233137E-2,.165E-5,0
DMC3-FM1,2015-032A,2026-07-01T14:49:35.638176,14.85751700,.00061313,97.6445,47.2257,20.8287,339.3177,0,U,40715,999,59205,-.22344531E-4,-.245E-5,0
DMC3-FM2,2015-032B,2026-07-01T15:21:16.102080,14.85757981,.00067245,97.6497,48.8304,24.2677,335.8854,0,U,40716,999,59205,.28639742E-4,.197E-5,0
DMC3-FM3,2015-032C,2026-07-01T14:18:01.503936,14.85750078,.00059619,97.6550,50.5507,26.7920,333.3603,0,U,40717,999,59205,.10328944E-3,.846E-5,0
CARBONITE 1 (CBNT-1),2015-032D,2026-07-01T14:46:35.526144,14.83629184,.00129568,97.6507,0.0782,245.4843,114.5021,0,U,40718,999,59148,.14107996E-3,.1114E-4,0
LILACSAT-2,2015-049K,2026-07-01T14:07:54.575904,15.51923214,.00070369,97.4623,219.9806,184.4926,175.6264,0,U,40908,999,59798,.3596872E-3,.21528E-3,0
