DUCHIFAT-1              
1 40021U 14033M   26182.59028081  .00141762  00000+0  12771-2 0  9990
2 40021  98.0446 243.8075 0000097  87.5908 272.5362 15.67738126658004
NANOSATC-BR1            
1 40024U 14033Q   26182.05536304  .00022675  00000+0  73726-3 0  9995
2 40024  98.0713 215.6747 0005206 130.4085 229.7610 15.31903939656104
QB50P1                  
1 40025U 14033R   26181.98950831  .00010029  00000+0  48959-3 0  9992
2 40025  98.0957 194.1047 0009266 167.8824 192.2633 15.18468022655128
DTUSAT-2                
1 40030U 14033W   26182.50331078  .00007459  00000+0  40080-3 0  9993
2 40030  98.0861 181.1409 0008151 173.5109 186.6228 15.15197162654855
QB50P2                  
1 40032U 14033Y   26180.97746561  .00007152  00000+0  38307-3 0  9990
2 40032  98.0748 178.6550 0009096 125.6149 234.5930 15.15322126654606
PERSEUS-M1              
1 40039U 14033AF  26181.81790235  .00001294  00000+0  12172-3 0  9991
2 40039  97.9649 126.1740 0009996 250.1954 109.8189 14.95677159652678
POLYITAN-1              
1 40042U 14033AJ  26182.34252855  .00026215  00000+0  80280-3 0  9990
2 40042  98.0933 209.9470 0008761 102.5893 257.6328 15.33763480655767
TIGRISAT                
1 40043U 14033AK  26182.06202210  .00001881  00000+0  22092-3 0  9999
2 40043  97.7848 331.7571 0049817  30.6226 329.7881 14.85211339647687
CANX-4                  
1 40055U 14034C   26182.47249023  .00000953  00000+0  12937-3 0  9997
2 40055  98.3102  58.3088 0012090 330.9197  29.1340 14.81290157646648
CANX-5                  
1 40056U 14034D   26182.40320789  .00001040  00000+0  14055-3 0  9991
2 40056  98.3105  58.2814 0012099 331.3634  28.6911 14.81307917637447
GONETS-M 10             
1 40063U 14036C   26182.55925815 -.00000100  00000+0 -79735-3 0  9992
2 40063  82.5128 298.7471 0022988 110.6441 249.7107 12.42945383544032
METEOR-M 2              
1 40069U 14037A   26182.57553984 -.00000112  00000+0 -32157-4 0  9996
2 40069  98.5117 157.8047 0006043   7.5055 352.6213 14.21464495621369
DX1                     
1 40071U 14037C   26182.59820988  .00001843  00000+0  19740-3 0  9994
2 40071  98.3876 145.1755 0005908 216.8779 143.2031 14.90029790648255
UKUBE-1                 
1 40074U 14037F   26182.24887478  .00010051  00000+0  56113-3 0  9992
2 40074  98.4232 187.0001 0003192 110.4842 249.6729 15.13766738650688
GAOFEN-2                
1 40118U 14049A   26182.63576340  .00000522  00000+0  74390-4 0  9990
2 40118  98.0108 246.8290 0007121 175.4231 184.7048 14.80914253641377
BRITE-PL2 (HEWELIUSZ)   
1 40119U 14049B   26182.29838104  .00001757  00000+0  16731-3 0  9997
2 40119  97.9112 294.4083 0015140  65.3963 294.8832 14.94645278643558
CBERS 4                 
1 40336U 14079A   26182.60489946  .00000405  00000+0  15543-3 0  9991
2 40336  98.3527 238.9839 0001394  50.8676 309.2634 14.35514040606021
SMAP                    
1 40376U 15003A   26182.57562116  .00000461  00000+0  98268-4 0  9998
2 40376  98.1277 189.4663 0001464  97.7075 262.4294 14.63379250609726
GONETS-M 11             
1 40552U 15020A   26182.57842071  .00000145  00000+0  97520-3 0  9992
2 40552  82.4857  22.0227 0015900 334.4454  25.5838 12.42878408510527
GONETS-M 12             
1 40553U 15020B   26182.63225189  .00000094  00000+0  60650-3 0  9992
2 40553  82.4890  23.1170 0014645 318.8247  41.1727 12.42891957510520
GONETS-M 13             
1 40554U 15020C   26182.60597478  .00000165  00000+0  11233-2 0  9994
2 40554  82.4852  21.7441 0013038 303.4037  56.5794 12.42871982510492
DMC3-FM1                
1 40715U 15032A   26182.61777359 -.00000245  00000+0 -22345-4 0  9994
2 40715  97.6445  47.2257 0006131  20.8287 339.3177 14.85751700592051
DMC3-FM2                
1 40716U 15032B   26182.63976970  .00000197  00000+0  28640-4 0  9995
2 40716  97.6497  48.8304 0006724  24.2677 335.8854 14.85757981592058
DMC3-FM3                
1 40717U 15032C   26182.59585074  .00000846  00000+0  10329-3 0  9997
2 40717  97.6550  50.5507 0005961  26.7920 333.3603 14.85750078592059
CARBONITE 1 (CBNT-1)    
1 40718U 15032D   26182.61568896  .00001114  00000+0  14108-3 0  9992
2 40718  97.6507   0.0782 0012956 245.4843 114.5021 14.83629184591483
LILACSAT-2              
1 40908U 15049K   26182.58882611  .00021528  00000+0  35969-3 0  9990
2 40908  97.4623 219.9806 0007036 184.4926 175.6264 15.51923214597981
